IRIDIUM 921             
1 24873U 97034E   24207.63932685  .00033019  00000+0  76779-3 0  9998
2 24873  86.3776 269.0365 0006031 109.0496 251.1413 15.42157892481108
IRIDIUM 26              
1 24903U 97043A   24207.64259792  .00000664  00000+0  22005-3 0  9997
2 24903  86.3931 247.6168 0002474  92.8202 267.3278 14.36450471409850
IRIDIUM 22              
1 24907U 97043E   24207.65832215  .00000666  00000+0  22554-3 0  9990
2 24907  86.3935 250.8784 0002229  92.2528 267.8923 14.35337307409922
DUMMY MASS 1            
1 24925U 97048A   24207.56946745  .00000855  00000+0  93997-4 0  9999
2 24925  86.3342 286.2543 0005441 205.9423 154.1530 14.86303053456602
DUMMY MASS 2            
1 24926U 97048B   24207.27565801  .00000864  00000+0  95638-4 0  9992
2 24926  86.3343 287.9404 0005797 223.3913 136.6855 14.86060126456347
IRIDIUM 29              
1 24944U 97051A   24207.78853376  .00000579  00000+0  19360-3 0  9999
2 24944  86.3944 280.7206 0002010  97.3524 262.7901 14.35790013406423
IRIDIUM 33              
1 24946U 97051C   24207.50291321  .00000550  00000+0  18833-3 0  9990
2 24946  86.3859 280.0893 0009920  70.9343 289.2927 14.34429253405906
IRIDIUM 28              
1 24948U 97051E   24207.69717505  .00000791  00000+0  26173-3 0  9992
2 24948  86.3948 278.4593 0002661  91.1235 269.0267 14.36745923406951
